SWARMC
1 39453U 13067C   20044.85610227  .00000996  00000-0  20603-4 0  9991
2 39453  87.3526 177.2042 0003116 101.6081 258.5526 15.44324773349951